STARLINK-37172          
1 68395U 26063R   26201.95291583  .00007441  00000+0  23256-3 0  9997
2 68395  97.2856 343.6444 0000265 101.5065 258.6208 15.33446902 18310
STARLINK-37190          
1 68396U 26063S   26202.29822079  .00011921  00000+0  37085-3 0  9999
2 68396  97.2857 344.0932 0001020 220.3813 139.7354 15.33457843 18373
STARLINK-37194          
1 68397U 26063T   26201.92844758  .00008826  00000+0  27537-3 0  9998
2 68397  97.2869 343.6756 0001342  87.1396 273.0000 15.33446542 18316
STARLINK-37220          
1 68398U 26063U   26202.13508872  .00015890  00000+0  49335-3 0  9996
2 68398  97.2853 343.8560 0001573  96.2985 263.8437 15.33452142 18343
STARLINK-37187          
1 68399U 26063V   26202.15411770  .00011400  00000+0  35478-3 0  9995
2 68399  97.2862 343.9809 0000574 124.0881 236.0417 15.33456428 18358
STARLINK-36235          
1 68400U 26063W   26201.92300756  .00013907  00000+0  43216-3 0  9996
2 68400  97.2858 343.6864 0001251   1.2322 358.8923 15.33454181 18318
STARLINK-37175          
1 68401U 26063X   26202.14324477  .00011097  00000+0  34544-3 0  9990
2 68401  97.2853 343.8427 0001307  88.2709 271.8683 15.33455808 18344
STARLINK-36360          
1 68402U 26063Y   26202.12149241  .00013183  00000+0  40986-3 0  9998
2 68402  97.2855 343.8761 0000823  95.4367 264.6970 15.33451814 18342
STARLINK-37218          
1 68403U 26063Z   26201.95646893  .00014765  00000+0  41004-3 0  9993
2 68403  97.2858 346.6798 0000320  51.8893 308.2380 15.36986308 18512
STARLINK-37188          
1 68404U 26063AA  26201.96649039  .00021838  00000+0  67591-3 0  9998
2 68404  97.2853 343.7794 0000710 226.9267 133.1916 15.33487001 18327
SHIYAN-33               
1 68405U 26064A   26202.26085931  .00003544  00000+0  14814-3 0  9993
2 68405  97.4607 277.6219 0013981 180.4225 179.7003 15.24187888 17687
LPNTSAT-001 (IOD-1)     
1 68408U 26065A   26202.07667089  .00001664  00000+0  83308-4 0  9992
2 68408  97.3973  81.8646 0014759 243.6918 116.2801 15.18687340 17402
LPNTSAT-002 (IOD-2)     
1 68409U 26065B   26202.10691715  .00004489  00000+0  21351-3 0  9997
2 68409  97.3961  81.9597 0012082 237.0773 122.9301 15.19626999 17390
XINZHENGCHENG-01        
1 68412U 26066A   26202.04553897  .00000368  00000+0  36163-4 0  9993
2 68412  84.9651 206.2033 0027108 131.9318 228.4223 14.88434728 16768
XINZHENGCHENG 01        
1 68414U 26066C   26202.03091101  .00000638  00000+0  64715-4 0  9993
2 68414  84.9646 206.1893 0027725 132.5853 227.7717 14.88677641 16766
TIANSHI-01              
1 68415U 26066D   26202.29926837  .00000955  00000+0  98213-4 0  9997
2 68415  84.9649 206.0162 0027273 130.8539 229.5056 14.88781956 16804
TRANSPORTER-16 OBJECT A 
1 68416U 26067A   26201.80451684  .00003486  00000+0  16577-3 0  9992
2 68416  97.4565 159.9761 0003540 122.3248 237.8330 15.19845818 17054
JACK-002                
1 68417U 26067B   26201.87624322  .00004227  00000+0  20084-3 0  9993
2 68417  97.4585 160.0629 0003380 123.9027 236.2530 15.19755606 17068
OPTISAT                 
1 68418U 26067C   26201.83365425  .00003324  00000+0  16113-3 0  9991
2 68418  97.4603 159.9941 0003230 137.1032 223.0455 15.19206915 17054
FEMTO-1                 
1 68419U 26067D   26202.16463869  .00001992  00000+0  98150-4 0  9991
2 68419  97.4562 160.2535 0003141 115.7135 244.4424 15.19107619 17100
ERMIS-2                 
1 68420U 26067E   26202.12219344  .00006931  00000+0  32209-3 0  9996
2 68420  97.4491 160.2216 0003465 101.3455 258.8170 15.20297640 17107
VIREON-2                
1 68421U 26067F   26201.84374446  .00002712  00000+0  13265-3 0  9994
2 68421  97.4538 159.8844 0002850 103.8159 256.3393 15.19054126 17058
BRO-19                  
1 68422U 26067G   26201.84491613  .00002715  00000+0  13293-3 0  9995
2 68422  97.4496 159.8255 0002774 102.4077 257.7468 15.19014311 17057
SPOQC                   
1 68423U 26067H   26201.84457257  .00003196  00000+0  15543-3 0  9996
2 68423  97.4525 159.8635 0002363 105.9625 254.1870 15.19122130 17051
SPACEVAN-002            
1 68424U 26067J   26202.15072892  .00004717  00000+0  23175-3 0  9990
2 68424  97.4530 160.0899 0000460  52.3097 307.8179 15.18531806 17093
ERMIS-3                 
1 68425U 26067K   26201.84967593  .00003964  00000+0  19202-3 0  9996
2 68425  97.4605 159.9781 0001798 135.8294 224.3084 15.19124806 17058
TRANSPORTER-16 OBJECT L 
1 68426U 26067L   26201.86591401  .00007358  00000+0  34100-3 0  9995
2 68426  97.4562 160.0467 0001736 133.3511 226.7869 15.20373122 17069
EMISAR                  
1 68427U 26067M   26201.82010335  .00005365  00000+0  25334-3 0  9999
2 68427  97.4563 159.9584 0001599 135.3136 224.8228 15.19848635 17051
OUT OF THE BOX (OOTB)   
1 68428U 26067N   26201.86782948  .00001940  00000+0  96804-4 0  9996
2 68428  97.4591 159.9319 0001006 146.4013 213.7285 15.18702412 17050
TROOP-F3                
1 68429U 26067P   26202.14871927  .00009012  00000+0  41821-3 0  9991
2 68429  97.4523 160.2276 0000118  47.1084 313.0161 15.20259702 17106
