OBJECT_NAME,OBJECT_ID,EPOCH,MEAN_MOTION,ECCENTRICITY,INCLINATION,RA_OF_ASC_NODE,ARG_OF_PERICENTER,MEAN_ANOMALY,EPHEMERIS_TYPE,CLASSIFICATION_TYPE,NORAD_CAT_ID,ELEMENT_SET_NO,REV_AT_EPOCH,BSTAR,MEAN_MOTION_DOT,MEAN_MOTION_DDOT
STARLINK-37172,2026-063R,2026-07-20T22:52:11.927712,15.33446902,.00002653,97.2856,343.6444,101.5065,258.6208,0,U,68395,999,1831,.23256383E-3,.7441E-4,0
STARLINK-37190,2026-063S,2026-07-21T07:09:26.276256,15.33457843,.00010204,97.2857,344.0932,220.3813,139.7354,0,U,68396,999,1837,.37085101E-3,.11921E-3,0
STARLINK-37194,2026-063T,2026-07-20T22:16:57.870912,15.33446542,.00013423,97.2869,343.6756,87.1396,273.0000,0,U,68397,999,1831,.27536792E-3,.8826E-4,0
STARLINK-37220,2026-063U,2026-07-21T03:14:31.665408,15.33452142,.00015734,97.2853,343.8560,96.2985,263.8437,0,U,68398,999,1834,.49335468E-3,.1589E-3,0
STARLINK-37187,2026-063V,2026-07-21T03:41:55.769280,15.33456428,.0000574,97.2862,343.9809,124.0881,236.0417,0,U,68399,999,1835,.35477992E-3,.114E-3,0
STARLINK-36235,2026-063W,2026-07-20T22:09:07.853184,15.33454181,.00012515,97.2858,343.6864,1.2322,358.8923,0,U,68400,999,1831,.43216435E-3,.13907E-3,0
STARLINK-37175,2026-063X,2026-07-21T03:26:16.348128,15.33455808,.00013074,97.2853,343.8427,88.2709,271.8683,0,U,68401,999,1834,.34544081E-3,.11097E-3,0
STARLINK-36360,2026-063Y,2026-07-21T02:54:56.944224,15.33451814,.00008236,97.2855,343.8761,95.4367,264.6970,0,U,68402,999,1834,.40986E-3,.13183E-3,0
STARLINK-37218,2026-063Z,2026-07-20T22:57:18.915552,15.36986308,.000032,97.2858,346.6798,51.8893,308.2380,0,U,68403,999,1851,.41003514E-3,.14765E-3,0
STARLINK-37188,2026-063AA,2026-07-20T23:11:44.769696,15.33487001,.00007109,97.2853,343.7794,226.9267,133.1916,0,U,68404,999,1832,.67590756E-3,.21838E-3,0
SHIYAN-33,2026-064A,2026-07-21T06:15:38.244384,15.24187888,.00139813,97.4607,277.6219,180.4225,179.7003,0,U,68405,999,1768,.14813639E-3,.3544E-4,0
LPNTSAT-001 (IOD-1),2026-065A,2026-07-21T01:50:24.364896,15.18687340,.00147591,97.3973,81.8646,243.6918,116.2801,0,U,68408,999,1740,.83308491E-4,.1664E-4,0
LPNTSAT-002 (IOD-2),2026-065B,2026-07-21T02:33:57.641760,15.19626999,.00120824,97.3961,81.9597,237.0773,122.9301,0,U,68409,999,1739,.21350803E-3,.4489E-4,0
XINZHENGCHENG-01,2026-066A,2026-07-21T01:05:34.567008,14.88434728,.00271081,84.9651,206.2033,131.9318,228.4223,0,U,68412,999,1676,.36162971E-4,.368E-5,0
XINZHENGCHENG 01,2026-066C,2026-07-21T00:44:30.711264,14.88677641,.0027725,84.9646,206.1893,132.5853,227.7717,0,U,68414,999,1676,.64715101E-4,.638E-5,0
TIANSHI-01,2026-066D,2026-07-21T07:10:56.787168,14.88781956,.00272731,84.9649,206.0162,130.8539,229.5056,0,U,68415,999,1680,.98213469E-4,.955E-5,0
TRANSPORTER-16 OBJECT A,2026-067A,2026-07-20T19:18:30.254976,15.19845818,.00035405,97.4565,159.9761,122.3248,237.8330,0,U,68416,999,1705,.16576599E-3,.3486E-4,0
JACK-002,2026-067B,2026-07-20T21:01:47.414208,15.19755606,.00033807,97.4585,160.0629,123.9027,236.2530,0,U,68417,999,1706,.20084019E-3,.4227E-4,0
OPTISAT,2026-067C,2026-07-20T20:00:27.727200,15.19206915,.00032307,97.4603,159.9941,137.1032,223.0455,0,U,68418,999,1705,.16113264E-3,.3324E-4,0
FEMTO-1,2026-067D,2026-07-21T03:57:04.782816,15.19107619,.0003141,97.4562,160.2535,115.7135,244.4424,0,U,68419,999,1710,.98149764E-4,.1992E-4,0
ERMIS-2,2026-067E,2026-07-21T02:55:57.513216,15.20297640,.00034655,97.4491,160.2216,101.3455,258.8170,0,U,68420,999,1710,.3220933E-3,.6931E-4,0
VIREON-2,2026-067F,2026-07-20T20:14:59.521344,15.19054126,.00028508,97.4538,159.8844,103.8159,256.3393,0,U,68421,999,1705,.13264518E-3,.2712E-4,0
BRO-19,2026-067G,2026-07-20T20:16:40.753632,15.19014311,.00027742,97.4496,159.8255,102.4077,257.7468,0,U,68422,999,1705,.13292791E-3,.2715E-4,0
SPOQC,2026-067H,2026-07-20T20:16:11.070048,15.19122130,.00023637,97.4525,159.8635,105.9625,254.1870,0,U,68423,999,1705,.15542816E-3,.3196E-4,0
SPACEVAN-002,2026-067J,2026-07-21T03:37:02.978688,15.18531806,.00004603,97.4530,160.0899,52.3097,307.8179,0,U,68424,999,1709,.2317526E-3,.4717E-4,0
ERMIS-3,2026-067K,2026-07-20T20:23:32.000352,15.19124806,.00017982,97.4605,159.9781,135.8294,224.3084,0,U,68425,999,1705,.19201531E-3,.3964E-4,0
TRANSPORTER-16 OBJECT L,2026-067L,2026-07-20T20:46:54.970464,15.20373122,.00017369,97.4562,160.0467,133.3511,226.7869,0,U,68426,999,1706,.34099727E-3,.7358E-4,0
EMISAR,2026-067M,2026-07-20T19:40:56.929440,15.19848635,.00015996,97.4563,159.9584,135.3136,224.8228,0,U,68427,999,1705,.25334247E-3,.5365E-4,0
OUT OF THE BOX (OOTB),2026-067N,2026-07-20T20:49:40.467072,15.18702412,.00010067,97.4591,159.9319,146.4013,213.7285,0,U,68428,999,1705,.96804488E-4,.194E-4,0
TROOP-F3,2026-067P,2026-07-21T03:34:09.344928,15.20259702,.00001182,97.4523,160.2276,47.1084,313.0161,0,U,68429,999,1710,.41821324E-3,.9012E-4,0
